     2.10           G: GLONASS NAV DATA                     RINEX VERSION / TYPE
teqc  2015Jun23                         20210520 02:25:48UTCPGM / RUN BY / DATE
Linux 2.4.21-27.ELsmp|Opteron|gcc -static|Linux x86_64|=+   COMMENT
  2021     4    26    1.350417733192D-08                    CORR TO SYSTEM TIME
                                                            END OF HEADER
 8 21  4 27 21 15  0.0-5.872640758753D-05 0.000000000000D+00 7.560000000000D+04
   -1.331354345703D+04-1.231642723083D+00 1.862645149231D-09 0.000000000000D+00
    1.796451904297D+04 1.145910263062D+00-1.862645149231D-09 6.000000000000D+00
    1.231866455078D+04-3.018386840820D+00-9.313225746155D-10 0.000000000000D+00
12 21  4 27 21 15  0.0 2.243407070637D-04 2.728484105319D-12 7.560000000000D+04
    6.851373535156D+03 2.903690338135D-01 5.587935447693D-09 0.000000000000D+00
    2.359104394531D+04 9.029407501221D-01 3.725290298462D-09-1.000000000000D+00
   -6.808458984375D+03 3.411076545715D+00-1.862645149231D-09 0.000000000000D+00
 1 21  4 27 21 15  0.0 7.854308933020D-05 0.000000000000D+00 7.560000000000D+04
   -1.196420898438D+02-2.246277809143D+00 9.313225746155D-10 0.000000000000D+00
    1.360326904297D+04 1.917052268982D+00-9.313225746155D-10 1.000000000000D+00
    2.158822900391D+04-1.219218254089D+00-2.793967723846D-09 0.000000000000D+00
 7 21  4 27 21 15  0.0-4.251021891832D-05-0.000000000000D+00 7.560000000000D+04
   -2.088753564453D+04 5.366792678833D-01 1.862645149231D-09 0.000000000000D+00
    1.401816357422D+04-2.259302139282D-01-2.793967723846D-09 5.000000000000D+00
   -4.049902343750D+03-3.516753196716D+00 9.313225746155D-10 0.000000000000D+00
23 21  4 27 21 15  0.0 3.813467919827D-04 1.818989403546D-12 7.560000000000D+04
    1.763323291016D+04-1.521160125732D+00 3.725290298462D-09 0.000000000000D+00
    1.341791113281D+04-8.575592041016D-01 5.587935447693D-09 3.000000000000D+00
   -1.265384082031D+04-3.030653953552D+00-9.313225746155D-10 0.000000000000D+00
22 21  4 27 21 15  0.0-1.099416986108D-04-9.094947017729D-13 7.563000000000D+04
   -3.295619628906D+03-2.942895889282D+00 2.793967723846D-09 0.000000000000D+00
    9.884435058594D+03-1.233447074890D+00 9.313225746155D-10-3.000000000000D+00
   -2.330141503906D+04-9.782505035400D-02 1.862645149231D-09 0.000000000000D+00
 8 21  4 27 21 45  0.0-5.872733891010D-05-0.000000000000D+00 7.740000000000D+04
   -1.486563330078D+04-5.019273757935D-01 1.862645149231D-09 0.000000000000D+00
    1.969752734375D+04 7.376565933228D-01-2.793967723846D-09 6.000000000000D+00
    6.480271484375D+03-3.426777839661D+00-0.000000000000D+00 0.000000000000D+00
12 21  4 27 21 45  0.0 2.243462949991D-04 2.728484105319D-12 7.740000000000D+04
    7.304943847656D+03 1.724300384521D-01 5.587935447693D-09 0.000000000000D+00
    2.442344775391D+04 2.254104614258D-02 1.862645149231D-09-1.000000000000D+00
   -4.842924804688D+02 3.570049285889D+00-1.862645149231D-09 0.000000000000D+00
 1 21  4 27 21 45  0.0 7.854495197535D-05 0.000000000000D+00 7.740000000000D+04
   -3.662717773438D+03-1.670546531677D+00 9.313225746155D-10 0.000000000000D+00
    1.709524853516D+04 1.918067932129D+00-1.862645149231D-09 1.000000000000D+00
    1.858841064453D+04-2.092285156250D+00-2.793967723846D-09 0.000000000000D+00
 7 21  4 27 21 45  0.0-4.251115024090D-05-0.000000000000D+00 7.740000000000D+04
   -1.940278417969D+04 1.075059890747D+00 9.313225746155D-10 0.000000000000D+00
    1.301819140625D+04-9.032211303711D-01-2.793967723846D-09 5.000000000000D+00
   -1.014077050781D+04-3.206707000732D+00 1.862645149231D-09 0.000000000000D+00
 8 21  4 27 22 15  0.0-5.872733891010D-05-0.000000000000D+00 7.920000000000D+04
   -1.518447021484D+04 1.218652725220D-01 9.313225746155D-10 0.000000000000D+00
    2.048432373047D+04 1.044912338257D-01-2.793967723846D-09 6.000000000000D+00
    1.412578125000D+02-3.570861816406D+00 0.000000000000D+00 0.000000000000D+00
12 21  4 27 22 15  0.0 2.243518829346D-04 2.728484105319D-12 7.920000000000D+04
    7.330466796875D+03-1.801223754883D-01 4.656612873077D-09 0.000000000000D+00
    2.370929199219D+04-7.964239120483D-01 0.000000000000D+00-1.000000000000D+00
    5.877420410156D+03 3.452583312988D+00-2.793967723846D-09 0.000000000000D+00
 1 21  4 27 22 15  0.0 7.854588329792D-05 0.000000000000D+00 7.920000000000D+04
   -6.094575195312D+03-1.029967308044D+00 9.313225746155D-10 0.000000000000D+00
    2.034141357422D+04 1.642445564270D+00-2.793967723846D-09 1.000000000000D+00
    1.415320703125D+04-2.803763389587D+00-1.862645149231D-09 0.000000000000D+00
 7 21  4 27 22 15  0.0-4.251208156347D-05-0.000000000000D+00 7.920000000000D+04
   -1.716877001953D+04 1.362500190735D+00 9.313225746155D-10 0.000000000000D+00
    1.073366552734D+04-1.634884834290D+00-1.862645149231D-09 5.000000000000D+00
   -1.544405175781D+04-2.647332191467D+00 2.793967723846D-09 0.000000000000D+00
13 21  4 27 22 15  0.0-5.401857197285D-05-0.000000000000D+00 8.049000000000D+04
    1.403629345703D+04 7.564039230347D-01 6.519258022308D-09 0.000000000000D+00
    1.810537353516D+04 1.343206405640D+00 2.793967723846D-09-2.000000000000D+00
   -1.123708935547D+04 3.114016532898D+00-9.313225746155D-10 0.000000000000D+00
 8 21  4 27 22 45  0.0-5.872827023268D-05-0.000000000000D+00 8.100000000000D+04
   -1.454335839844D+04 5.528011322021D-01 9.313225746155D-10 0.000000000000D+00
    1.998485205078D+04-6.758089065552D-01-2.793967723846D-09 6.000000000000D+00
   -6.208542968750D+03-3.438524246216D+00 9.313225746155D-10 0.000000000000D+00
12 21  4 27 22 45  0.0 2.243565395474D-04 2.728484105319D-12 8.100000000000D+04
    6.545930664062D+03-7.157745361328D-01 2.793967723846D-09 0.000000000000D+00
    2.165673095703D+04-1.449009895325D+00-9.313225746155D-10-1.000000000000D+00
    1.178442578125D+04 3.068176269531D+00-2.793967723846D-09 0.000000000000D+00
 1 21  4 27 22 45  0.0 7.854681462049D-05 0.000000000000D+00 8.100000000000D+04
   -7.397903320312D+03-4.344806671143D-01 9.313225746155D-10 0.000000000000D+00
    2.284957861328D+04 1.104173660278D+00-2.793967723846D-09 1.000000000000D+00
    8.625082031250D+03-3.298770904541D+00-9.313225746155D-10 0.000000000000D+00
 7 21  4 27 22 45  0.0-4.251301288605D-05-0.000000000000D+00 8.100000000000D+04
   -1.465966748047D+04 1.381690979004D+00 0.000000000000D+00 0.000000000000D+00
    7.168164550781D+03-2.307461738586D+00-1.862645149231D-09 5.000000000000D+00
   -1.954728710938D+04-1.882043838501D+00 2.793967723846D-09 0.000000000000D+00
13 21  4 27 22 45  0.0-5.401857197285D-05-0.000000000000D+00 8.100000000000D+04
    1.521337695312D+04 5.091133117676D-01 6.519258022308D-09 0.000000000000D+00
    1.979031884766D+04 5.302658081055D-01 9.313225746155D-10-2.000000000000D+00
   -5.270130371094D+03 3.472947120667D+00-1.862645149231D-09 0.000000000000D+00
 2 21  4 27 22 45  0.0 4.764813929796D-04 1.818989403546D-12 8.247000000000D+04
    6.135459472656D+03-1.466427803040D+00 0.000000000000D+00 0.000000000000D+00
    1.065529541016D+04 2.679365158081D+00-9.313225746155D-10-4.000000000000D+00
    2.238666796875D+04-8.804025650024D-01-3.725290298462D-09 0.000000000000D+00
 8 21  4 27 23 15  0.0-5.872920155525D-05-0.000000000000D+00 8.280000000000D+04
   -1.334180615234D+04 7.395334243774D-01 0.000000000000D+00 0.000000000000D+00
    1.802613427734D+04-1.497876167297D+00-2.793967723846D-09 6.000000000000D+00
   -1.207677880859D+04-3.039146423340D+00 1.862645149231D-09 0.000000000000D+00
 2 21  4 27 23 15  0.0 4.764869809151D-04 9.094947017729D-13 8.280000000000D+04
    3.964543945312D+03-9.389076232910D-01 0.000000000000D+00 0.000000000000D+00
    1.541435498047D+04 2.558546066284D+00-1.862645149231D-09-4.000000000000D+00
    1.995998046875D+04-1.798698425293D+00-2.793967723846D-09 0.000000000000D+00
 1 21  4 27 23 15  0.0 7.854867726564D-05 0.000000000000D+00 8.280000000000D+04
   -7.745015136719D+03 1.812076568604D-02 9.313225746155D-10 0.000000000000D+00
    2.419252734375D+04 3.605585098267D-01-2.793967723846D-09 1.000000000000D+00
    2.430857910156D+03-3.539065361023D+00-0.000000000000D+00 0.000000000000D+00
12 21  4 27 23 15  0.0 2.243621274829D-04 2.728484105319D-12 8.280000000000D+04
    4.695278320312D+03-1.348063468933D+00 9.313225746155D-10 0.000000000000D+00
    1.863936035156D+04-1.858799934387D+00-1.862645149231D-09-1.000000000000D+00
    1.678041650391D+04 2.446984291077D+00-2.793967723846D-09 0.000000000000D+00
13 21  4 27 23 15  0.0-5.401950329542D-05-0.000000000000D+00 8.280000000000D+04
    1.572577929688D+04 2.440834045410D-02 5.587935447693D-09 0.000000000000D+00
    2.005302539062D+04-2.186536788940D-01-0.000000000000D+00-2.000000000000D+00
    1.104117675781D+03 3.563570976257D+00-2.793967723846D-09 0.000000000000D+00
23 21  4 27 23 15  0.0 3.813654184341D-04 1.818989403546D-12 8.301000000000D+04
   -1.621106445312D+03-3.139229774475D+00 2.793967723846D-09 0.000000000000D+00
    1.063317871094D+04 4.473047256470D-01-0.000000000000D+00 3.000000000000D+00
   -2.313867724609D+04 4.263219833374D-01 2.793967723846D-09 0.000000000000D+00
22 21  4 27 23 15  0.0-1.099565997720D-04-1.818989403546D-12 8.376000000000D+04
   -2.172584570312D+04-1.441394805908D+00-2.793967723846D-09 0.000000000000D+00
    7.735710449219D+03 4.079523086548D-01-2.793967723846D-09-3.000000000000D+00
   -1.080365576172D+04 3.204897880554D+00 2.793967723846D-09 0.000000000000D+00
 8 21  4 27 23 45  0.0-5.873106420040D-05-0.000000000000D+00 8.460000000000D+04
   -1.203292382812D+04 6.746511459351D-01-0.000000000000D+00 0.000000000000D+00
    1.463721435547D+04-2.245700836182D+00-1.862645149231D-09 6.000000000000D+00
   -1.700711132812D+04-2.403138160706D+00 2.793967723846D-09 0.000000000000D+00
 2 21  4 27 23 45  0.0 4.764897748828D-04 9.094947017729D-13 8.460000000000D+04
    2.746794921875D+03-4.255256652832D-01 0.000000000000D+00 0.000000000000D+00
    1.968927392578D+04 2.144635200500D+00-2.793967723846D-09-4.000000000000D+00
    1.599397607422D+04-2.579632759094D+00-1.862645149231D-09 0.000000000000D+00
